NORAD_CAT_ID,OBJECT_NAME,OBJECT_TYPE,EPOCH,MEAN_MOTION,ECCENTRICITY,INCLINATION,RA_OF_ASC_NODE,ARG_OF_PERICENTER,MEAN_ANOMALY,BSTAR,MEAN_MOTION_DOT,MEAN_MOTION_DDOT,TLE_LINE0,TLE_LINE1,TLE_LINE2,SEMIMAJOR_AXIS,PERIOD,APOGEE,PERIGEE,DECAYED
51120.0,STARLINK-3398,PAYLOAD,2023-01-09 22:59:26,15.08845476,0.0003107,53.2155,72.9263,22.1382,337.9744,0.00026548,3.94e-05,0.0,0 STARLINK-3398,1 51120U 22005S   23009.95794677  .00003940  00000-0  26548-3 0  9990,2 51120  53.2155  72.9263 0003107  22.1382 337.9744 15.08845476 55667,6917.864000000001,95.437,541.878,537.5790000000002,0.0
51120.0,STARLINK-3398,PAYLOAD,2023-01-10 13:17:54,15.08842734,0.0003056,53.2164,70.2506,21.7784,338.3338,-2.0474e-05,-6.15e-06,0.0,0 STARLINK-3398,1 51120U 22005S   23010.55410819 -.00000615  00000-0 -20474-4 0  9992,2 51120  53.2164  70.2506 0003056  21.7784 338.3338 15.08842734 55750,6917.871999999999,95.437,541.851,537.623,0.0
51120.0,STARLINK-3398,PAYLOAD,2023-01-11 02:01:00,15.08836203,0.0003105,53.2163,67.8714,22.5837,337.5291,-7.283e-05,-1.448e-05,0.0,0 STARLINK-3398,1 51120U 22005S   23011.08403240 -.00001448  00000-0 -72830-4 0  9999,2 51120  53.2163  67.8714 0003105  22.5837 337.5291 15.08836203 55837,6917.892,95.438,541.905,537.609,0.0
51120.0,STARLINK-3398,PAYLOAD,2023-01-11 09:57:55,15.08844712,0.000291,53.2155,66.383,23.5422,336.5703,0.00010225,1.339e-05,0.0,0 STARLINK-3398,1 51120U 22005S   23011.41522832  .00001339  00000-0  10225-3 0  9991,2 51120  53.2155  66.3830 0002910  23.5422 336.5703 15.08844712 55881,6917.866,95.437,541.744,537.7180000000002,0.0
51120.0,STARLINK-3398,PAYLOAD,2023-01-11 21:05:37,15.08841552,0.000298,53.216,64.30199999999999,23.2123,336.9004,0.00017599,2.514e-05,0.0,0 STARLINK-3398,1 51120U 22005S   23011.87891058  .00002514  00000-0  17599-3 0  9997,2 51120  53.2160  64.3020 0002980  23.2123 336.9004 15.08841552 54840,6917.876,95.437,541.802,537.679,0.0
51120.0,STARLINK-3398,PAYLOAD,2023-01-12 01:51:47,15.08828971,0.0002778,53.2155,63.4108,26.3628,333.7505,-1.0557e-05,-4.57e-06,0.0,0 STARLINK-3398,1 51120U 22005S   23012.07763799 -.00000457  00000-0 -10557-4 0  9994,2 51120  53.2155  63.4108 0002778  26.3628 333.7505 15.08828971 55987,6917.914000000002,95.438,541.701,537.857,0.0
51120.0,STARLINK-3398,PAYLOAD,2023-01-12 09:48:43,15.08833179,0.000277,53.2152,61.9232,28.1021,332.01199999999994,5.5345e-05,5.92e-06,0.0,0 STARLINK-3398,1 51120U 22005S   23012.40883793  .00000592  00000-0  55345-4 0  9990,2 51120  53.2152  61.9232 0002770  28.1021 332.0120 15.08833179 54928,6917.901,95.438,541.682,537.85,0.0
51120.0,STARLINK-3398,PAYLOAD,2023-01-13 09:39:30,15.08840269,0.0002793999999999,53.2142,57.4605,29.245,330.8698,0.00023288,3.4200000000000005e-05,0.0,0 STARLINK-3398,1 51120U 22005S   23013.40244037  .00003420  00000-0  23288-3 0  9996,2 51120  53.2142  57.4605 0002794  29.2450 330.8698 15.08840269 56189,6917.88,95.438,541.677,537.812,0.0
51120.0,STARLINK-3398,PAYLOAD,2023-01-13 19:11:49,15.08840449,0.0002821,53.2145,55.6791,31.2245,328.8914,0.00017004,2.419e-05,0.0,0 STARLINK-3398,1 51120U 22005S   23013.79988060  .00002419  00000-0  17004-3 0  9995,2 51120  53.2145  55.6791 0002821  31.2245 328.8914 15.08840449 55136,6917.879,95.438,541.696,537.7919999999999,0.0
51120.0,STARLINK-3398,PAYLOAD,2023-01-14 19:02:36,15.08844056,0.0002758,53.2132,51.2165,35.8937,324.224,0.00019446,2.808e-05,0.0,0 STARLINK-3398,1 51120U 22005S   23014.79348047  .00002808  00000-0  19446-3 0  9995,2 51120  53.2132  51.2165 0002758  35.8937 324.2240 15.08844056 56395,6917.868,95.437,541.641,537.825,0.0
51120.0,STARLINK-3398,PAYLOAD,2023-01-15 02:59:32,15.0883184,0.0002364,53.215,49.7323,46.5263,313.5925,-5.0418e-05,-1.091e-05,0.0,0 STARLINK-3398,1 51120U 22005S   23015.12468571 -.00001091  00000-0 -50418-4 0  9998,2 51120  53.2150  49.7323 0002364  46.5263 313.5925 15.08831840 56441,6917.905,95.438,541.406,538.135,0.0
51120.0,STARLINK-3398,PAYLOAD,2023-01-15 10:56:28,15.08845928,0.000237,53.2144,48.2431,45.0628,315.0556,0.00022605,3.312e-05,0.0,0 STARLINK-3398,1 51120U 22005S   23015.45588112  .00003312  00000-0  22605-3 0  9990,2 51120  53.2144  48.2431 0002370  45.0628 315.0556 15.08845928 56498,6917.861999999999,95.437,541.367,538.0880000000001,0.0
51120.0,STARLINK-3398,PAYLOAD,2023-01-15 18:53:23,15.08840723,0.0002211999999999,53.2146,46.7568,48.1655,311.9526,0.00013944,1.932e-05,0.0,0 STARLINK-3398,1 51120U 22005S   23015.78708255  .00001932  00000-0  13944-3 0  9990,2 51120  53.2146  46.7568 0002212  48.1655 311.9526 15.08840723 55436,6917.878000000001,95.438,541.273,538.2130000000001,0.0
51120.0,STARLINK-3398,PAYLOAD,2023-01-16 10:47:14,15.08863137,0.0002481,53.2153,43.7824,52.455,307.6668,0.00087005,0.00013595,0.0,0 STARLINK-3398,1 51120U 22005S   23016.44947776  .00013595  00000-0  87005-3 0  9994,2 51120  53.2153  43.7824 0002481  52.4550 307.6668 15.08863137 56643,6917.81,95.436,541.391,537.9580000000001,0.0
51120.0,STARLINK-3398,PAYLOAD,2023-01-16 18:44:10,15.08834581,0.0001546,53.2157,42.3003,60.2889,299.8257,-0.00035716,-5.967e-05,0.0,0 STARLINK-3398,1 51120U 22005S   23016.78067985 -.00005967  00000-0 -35716-3 0  9994,2 51120  53.2157  42.3003 0001546  60.2889 299.8257 15.08834581 56696,6917.897,95.438,540.831,538.692,0.0
51120.0,STARLINK-3398,PAYLOAD,2023-01-17 02:41:07,15.08811877,0.0001835,53.2147,40.8113,64.4613,295.6568,-0.00061651,-0.00010079,0.0,0 STARLINK-3398,1 51120U 22005S   23017.11189139 -.00010079  00000-0 -61651-3 0  9995,2 51120  53.2147  40.8113 0001835  64.4613 295.6568 15.08811877 56740,6917.965999999999,95.439,541.101,538.562,0.0
51120.0,STARLINK-3398,PAYLOAD,2023-01-17 10:38:03,15.08814589,0.0002475,53.2133,39.3219,66.1532,293.9719,-0.00025507,-4.343e-05,0.0,0 STARLINK-3398,1 51120U 22005S   23017.44309913 -.00004343  00000-0 -25507-3 0  9992,2 51120  53.2133  39.3219 0002475  66.1532 293.9719 15.08814589 55689,6917.9580000000005,95.439,541.535,538.111,0.0
51120.0,STARLINK-3398,PAYLOAD,2023-01-17 18:34:59,15.08828371,0.0002472,53.2156,37.8367,70.0347,290.0912,0.0004718999999999,7.228e-05,0.0,0 STARLINK-3398,1 51120U 22005S   23017.77430130  .00007228  00000-0  47190-3 0  9999,2 51120  53.2156  37.8367 0002472  70.0347 290.0912 15.08828371 56842,6917.916,95.438,541.491,538.071,0.0
51120.0,STARLINK-3398,PAYLOAD,2023-01-18 07:18:04,15.08877646,0.0001993,53.2138,35.4575,73.1731,286.9479,0.0026578,0.00042309,0.0,0 STARLINK-3398,1 51120U 22005S   23018.30421659  .00042309  00000-0  26578-2 0  9990,2 51120  53.2138  35.4575 0001993  73.1731 286.9479 15.08877646 56925,6917.765,95.435,541.009,538.252,0.0
51120.0,STARLINK-3398,PAYLOAD,2023-01-18 12:04:13,15.08889971,0.0001978,53.2138,34.565,73.2326,286.8883,0.002501,0.00039796,0.0,0 STARLINK-3398,1 51120U 22005S   23018.50293094  .00039796  00000-0  25010-2 0  9998,2 51120  53.2138  34.5650 0001978  73.2326 286.8883 15.08889971 55845,6917.728,95.434,540.961,538.224,0.0
51120.0,STARLINK-3398,PAYLOAD,2023-01-18 18:25:45,15.08872934,0.0001921999999999,53.2147,33.3752,76.3891,283.7315,0.0010773,0.00016914,0.0,0 STARLINK-3398,1 51120U 22005S   23018.76788899  .00016914  00000-0  10773-2 0  9995,2 51120  53.2147  33.3752 0001922  76.3891 283.7315 15.08872934 56999,6917.78,95.435,540.974,538.315,0.0
51120.0,STARLINK-3398,PAYLOAD,2023-01-19 10:19:36,15.08879262,0.0001846,53.214,30.4014,80.0591,280.0609,0.0017109,0.00027075,0.0,0 STARLINK-3398,1 51120U 22005S   23019.43027882  .00027075  00000-0  17109-2 0  9998,2 51120  53.2140  30.4014 0001846  80.0591 280.0609 15.08879262 57094,6917.76,95.435,540.9019999999999,538.3480000000001,0.0
51120.0,STARLINK-3398,PAYLOAD,2023-01-20 11:45:47,15.08844242,0.0001717,53.2148,25.6433,93.3859,266.733,0.0013867,0.00021853,0.0,0 STARLINK-3398,1 51120U 22005S   23020.49012820  .00021853  00000-0  13867-2 0  9997,2 51120  53.2148  25.6433 0001717  93.3859 266.7330 15.08844242 57254,6917.866999999999,95.437,540.92,538.545,0.0
51120.0,STARLINK-3398,PAYLOAD,2023-01-21 03:39:38,15.08836601,0.0001875999999999,53.2142,22.6689,90.4468,269.6739,0.0017414,0.00027533,0.0,0 STARLINK-3398,1 51120U 22005S   23021.15253404  .00027533  00000-0  17414-2 0  9999,2 51120  53.2142  22.6689 0001876  90.4468 269.6739 15.08836601 57354,6917.891,95.438,541.054,538.4580000000001,0.0
51120.0,STARLINK-3398,PAYLOAD,2023-01-21 16:22:44,15.088513,0.0001595,53.2144,20.2897,84.2881,275.8293,0.0013124,0.00020667,0.0,0 STARLINK-3398,1 51120U 22005S   23021.68245416  .00020667  00000-0  13124-2 0  9996,2 51120  53.2144  20.2897 0001595  84.2881 275.8293 15.08851300 57435,6917.846,95.437,540.814,538.607,0.0
51120.0,STARLINK-3398,PAYLOAD,2023-01-22 08:16:35,15.08855051,0.0001739,53.2161,17.317999999999998,95.3873,264.7318,0.00092219,0.00014425,0.0,0 STARLINK-3398,1 51120U 22005S   23022.34485218  .00014425  00000-0  92219-3 0  9994,2 51120  53.2161  17.3180 0001739  95.3873 264.7318 15.08855051 57533,6917.834,95.437,540.9019999999999,538.496,0.0
51120.0,STARLINK-3398,PAYLOAD,2023-01-23 08:07:22,15.08841572,0.0002251,53.2146,12.8546,91.0482,269.0768,0.00058454,9.028e-05,0.0,0 STARLINK-3398,1 51120U 22005S   23023.33846053  .00009028  00000-0  58454-3 0  9998,2 51120  53.2146  12.8546 0002251  91.0482 269.0768 15.08841572 57687,6917.876,95.437,541.298,538.183,0.0
51120.0,STARLINK-3398,PAYLOAD,2023-01-24 04:47:24,15.08829332,0.0001704,53.2151,8.9899,109.8448,250.2728,0.00095888,0.00015001,0.0,0 STARLINK-3398,1 51120U 22005S   23024.19958860  .00015001  00000-0  95888-3 0  9993,2 51120  53.2151   8.9899 0001704 109.8448 250.2728 15.08829332 57815,6917.9130000000005,95.438,540.957,538.599,0.0
51120.0,STARLINK-3398,PAYLOAD,2023-01-25 07:48:57,15.08865154,0.0001599,53.2152,3.9336,96.1564,263.9611,0.00099839,0.00015648,0.0,0 STARLINK-3398,1 51120U 22005S   23025.32566285  .00015648  00000-0  99839-3 0  9992,2 51120  53.2152   3.9336 0001599  96.1564 263.9611 15.08865154 57988,6917.804,95.436,540.775,538.562,0.0
